#aV2011 12 19  0  0   .00000000      96 DD+AD WGS84 FIT  NGA
## 1667  86400.00000000   900.00000000 55914  .0000000000000
+   31     1  2  3  4  5  6  7  8  9 10 11 12 13 14 15 16 17
+         18 19 20 21 22 23 25 26 27 28 29 30 31 32  0  0  0
+          0  0  0  0  0  0  0  0  0  0  0  0  0  0  0  0  0
+          0  0  0  0  0  0  0  0  0  0  0  0  0  0  0  0  0
+          0  0  0  0  0  0  0  0  0  0  0  0  0  0  0  0  0
++         0  0  0  0  0  0  0  0  0  0  0  0  0  0  0  0  0
++         0  0  0  0  0  0  0  0  0  0  0  0  0  0  0  0  0
++         0  0  0  0  0  0  0  0  0  0  0  0  0  0  0  0  0
++         0  0  0  0  0  0  0  0  0  0  0  0  0  0  0  0  0
++         0  0  0  0  0  0  0  0  0  0  0  0  0  0  0  0  0
%c cc cc ccc ccc cccc cccc cccc cccc ccccc ccccc ccccc ccccc
%c cc cc ccc ccc cccc cccc cccc cccc ccccc ccccc ccccc ccccc
%f  0.0000000  0.000000000  0.00000000000  0.000000000000000
%f  0.0000000  0.000000000  0.00000000000  0.000000000000000
%i    0    0    0    0      0      0      0      0         0
%i    0    0    0    0      0      0      0      0         0
/*      NGA, ST. LOUIS,MO.                                  
/*   EPHEMERIS COMPUTED FROM  3 DAYS OF DATA                
/* CCCCCCCCCCCCCCCCCCCCCCCCCCCCCCCCCCCCCCCCCCCCCCCCCCCCCCCCC
/* CCCCCCCCCCCCCCCCCCCCCCCCCCCCCCCCCCCCCCCCCCCCCCCCCCCCCCCCC
*  2011 12 19  5 15   .00000000                                                 
P  1 -19623.612385 -13547.251534 -11725.674648    147.908007                    
V  1  14988.212575   1396.644893 -26725.682090       .157474                    
P  2  -3398.997982  15372.421615  21475.976691    370.854867                    
V  2 -26322.368920  -6699.292782    131.742590       .017013                    
P  3   7427.564087 -23113.387307 -10882.753876    810.354121                    
V  3  10755.106931  -8549.032800  26900.493338       .052298                    
P  4 -17481.766888   8895.360097  17816.413091     37.477785                    
V  4 -21816.526152  -7683.661270 -17007.470427       .112322                    
P  5   1581.757022  25430.718830   7243.666942   -259.710490                    
V  5  -5341.810811  -8152.450771  29820.038017      -.047919                    
P  6  12486.922242 -22078.898929  -7272.964454     16.534029                    
V  6   9008.227346  -4714.319473  29508.951837       .038846                    
P  7 -25938.469121  -6082.189724  -1637.583710     44.235139                    
V  7  -1433.731755  -2631.856281  31823.057253       .024161                    
P  8 -23741.254440   -165.666520 -12427.035414       .192063                    
V  8 -14311.707057  -6301.072620  26744.258349       .001300                    
P  9  16211.926942  14717.778559 -15560.651374    125.971431                    
V  9 -18511.112964  -3239.332346 -23198.279740       .025303                    
P 10 -11800.291174  12281.853967  20043.325319    -22.651652                    
V 10  -7625.147696 -25034.283725  11114.382446      -.013034                    
P 11 -14750.835611 -14148.595602 -17484.344508   -214.511864                    
V 11  21662.674998  -2599.534585 -16186.213929      -.036164                    
P 12  11680.063108  22247.948877   8882.675450     41.462575                    
V 12    810.196009  11332.570283 -29307.323143       .022496                    
P 13 -18530.034250   -693.617499  18912.128083    235.492908                    
V 13  17856.884693 -16374.609491  16695.110384      -.020424                    
P 14  21245.633942 -15239.385404  -4047.684785    186.375324                    
V 14  -2496.797743   5278.229756 -31731.277770       .016288                    
P 15   4616.836067  16356.158571 -20360.235413    -96.437182                    
V 15 -18760.856649  17977.957193  10381.653970       .008728                    
P 16   -129.518285 -25121.698377   8150.928342   -214.638904                    
V 16   4577.614403   9612.861630  30047.255917      -.018829                    
P 17 -21361.866981  14256.964155  -6097.006357    159.742739                    
V 17   3838.311429  -7584.836357 -30658.548394      -.021710                    
P 18  16583.907631   5400.612733 -19781.655884    172.557305                    
V 18   5284.494551  25369.812388  10805.546829       .018339                    
P 19   -631.900810 -17617.248643 -19787.404380   -216.624047                    
V 19  20109.517700 -15196.102487  13272.495807      -.039401                    
P 20 -13683.848958 -20838.318988   9115.511923     58.297902                    
V 20   -357.520381 -12282.958407 -28053.760062       .007248                    
P 21  26115.453250   3283.097119  -4985.493745   -191.824347                    
V 21   5721.616275   4889.894827  29855.018445      -.024567                    
P 22  12741.989462 -11234.670002 -20220.207585    143.095545                    
V 22   7611.661151  25113.340601  -9187.375200       .000680                    
P 23 -12028.198030  -9441.381852  21760.605680    249.597370                    
V 23  19643.606415 -19306.414342   2131.658730      -.033193                    
P 25  15729.778720  13452.959643  16641.384866     30.281175                    
V 25   4121.665937  20810.393629 -20654.583118       .005688                    
P 26  -8283.064316  20344.803688 -15242.842853   -266.826249                    
V 26 -15022.977168  10745.624776  23816.268495      -.139729                    
P 27  10731.443236  15091.516354 -18559.277738    337.294731                    
V 27 -24371.924969  -4310.372872 -16612.862496       .038632                    
P 28 -13181.783918   7129.088127 -21363.095790     94.464941                    
V 28  -6659.296194 -27620.351206  -5220.968683       .035348                    
P 29  18113.108297   1652.876025  19405.201110    267.333552                    
V 29 -17135.077331  17574.774581  14581.567242       .033626                    
P 30   4521.459924 -20213.910685  16265.221145     18.671418                    
V 30   9493.842044  19209.986726  20792.909704      -.123759                    
P 31  14461.558797  -9987.085198  20188.465399    184.360981                    
V 31  23917.723259   7513.657507 -13336.288813       .049362                    
P 32  -7015.650872 -25689.720356   3362.654630   -379.388135                    
V 32   1877.650585  -4327.287348 -30909.858606      -.058685                    
EOF
